start=new Date('2022-09-02T00:00:00.000Z').valueOf();
sats=[{"MEAN_MOTION":"15.06394209","MEAN_ANOMALY":"262.7572","SEMIMAJOR_AXIS":"6925.366","NORAD_CAT_ID":"48334","EPOCH":"2022-09-01T20:36:45.449568","INCLINATION":"53.0534","APOAPSIS":"548.278","EPHEMERIS_TYPE":"0","CENTER_NAME":"EARTH","PERIOD":"95.593","GP_ID":"211503259","TIME_SYSTEM":"UTC","LAUNCH_DATE":"2021-04-29","OBJECT_TYPE":"PAYLOAD","TLE_LINE2":"2 48334  53.0534 109.4396 0001511  97.3588 262.7572 15.06394209 74386","MEAN_MOTION_DDOT":"0.0000000000000","COUNTRY_CODE":"US","RA_OF_ASC_NODE":"109.4396","REF_FRAME":"TEME","RCS_SIZE":"LARGE","BSTAR":"-0.00021908000000","ECCENTRICITY":"0.00015110","CLASSIFICATION_TYPE":"U","ELEMENT_SET_NO":"999","MEAN_MOTION_DOT":"-0.00003543","OBJECT_ID":"2021-036BL","MEAN_ELEMENT_THEORY":"SGP4","FILE":"3554009","PERIAPSIS":"546.185","SITE":"AFETR","REV_AT_EPOCH":"7438","ARG_OF_PERICENTER":"97.3588","TLE_LINE1":"1 48334U 21036BL  22244.85885937 -.00003543  00000-0 -21908-3 0  9991","DECAY_DATE":null,"OBJECT_NAME":"STARLINK-2470"},{"CLASSIFICATION_TYPE":"U","BSTAR":"0.00005655600000","ECCENTRICITY":"0.00014250","RCS_SIZE":"LARGE","ELEMENT_SET_NO":"999","PERIAPSIS":"546.229","MEAN_ELEMENT_THEORY":"SGP4","FILE":"3554009","MEAN_MOTION_DOT":"0.00000561","OBJECT_ID":"2021-036BM","OBJECT_NAME":"STARLINK-2441","DECAY_DATE":null,"ARG_OF_PERICENTER":"88.7341","TLE_LINE1":"1 48335U 21036BM  22244.85515473  .00000561  00000-0  56556-4 0  9990","REV_AT_EPOCH":"7438","SITE":"AFETR","NORAD_CAT_ID":"48335","SEMIMAJOR_AXIS":"6925.351","MEAN_ANOMALY":"271.3811","MEAN_MOTION":"15.06399093","PERIOD":"95.592","CENTER_NAME":"EARTH","EPHEMERIS_TYPE":"0","APOAPSIS":"548.203","INCLINATION":"53.0541","EPOCH":"2022-09-01T20:31:25.368672","OBJECT_TYPE":"PAYLOAD","LAUNCH_DATE":"2021-04-29","TIME_SYSTEM":"UTC","GP_ID":"211502508","RA_OF_ASC_NODE":"109.4738","REF_FRAME":"TEME","COUNTRY_CODE":"US","MEAN_MOTION_DDOT":"0.0000000000000","TLE_LINE2":"2 48335  53.0541 109.4738 0001425  88.7341 271.3811 15.06399093 74388"},{"ELEMENT_SET_NO":"999","BSTAR":"0.00000533500000","ECCENTRICITY":"0.00010060","CLASSIFICATION_TYPE":"U","RCS_SIZE":"LARGE","OBJECT_NAME":"STARLINK-2613","REV_AT_EPOCH":"7329","SITE":"AFETR","TLE_LINE1":"1 48353U 21038A   22244.32991935 -.00000202  00000-0  53350-5 0  9998","ARG_OF_PERICENTER":"66.7661","DECAY_DATE":null,"MEAN_MOTION_DOT":"-0.00000202","OBJECT_ID":"2021-038A","FILE":"3553574","MEAN_ELEMENT_THEORY":"SGP4","PERIAPSIS":"546.554","EPHEMERIS_TYPE":"0","CENTER_NAME":"EARTH","PERIOD":"95.593","EPOCH":"2022-09-01T07:55:05.031840","INCLINATION":"53.0546","APOAPSIS":"547.948","SEMIMAJOR_AXIS":"6925.386","NORAD_CAT_ID":"48353","MEAN_MOTION":"15.06387812","MEAN_ANOMALY":"293.3434","COUNTRY_CODE":"US","RA_OF_ASC_NODE":"11.8299","REF_FRAME":"TEME","TLE_LINE2":"2 48353  53.0546  11.8299 0001006  66.7661 293.3434 15.06387812 73297","MEAN_MOTION_DDOT":"0.0000000000000","OBJECT_TYPE":"PAYLOAD","GP_ID":"211466580","TIME_SYSTEM":"UTC","LAUNCH_DATE":"2021-05-04"},{"ECCENTRICITY":"0.00014250","BSTAR":"0.00015007000000","CLASSIFICATION_TYPE":"U","RCS_SIZE":"LARGE","ELEMENT_SET_NO":"999","MEAN_MOTION_DOT":"0.00001955","OBJECT_ID":"2021-038B","FILE":"3554009","MEAN_ELEMENT_THEORY":"SGP4","PERIAPSIS":"546.221","OBJECT_NAME":"STARLINK-2674","SITE":"AFETR","REV_AT_EPOCH":"7334","TLE_LINE1":"1 48354U 21038B   22244.65796123  .00001955  00000-0  15007-3 0  9997","ARG_OF_PERICENTER":"101.3588","DECAY_DATE":null,"SEMIMAJOR_AXIS":"6925.343","NORAD_CAT_ID":"48354","MEAN_MOTION":"15.06401796","MEAN_ANOMALY":"258.7561","EPHEMERIS_TYPE":"0","CENTER_NAME":"EARTH","PERIOD":"95.592","EPOCH":"2022-09-01T15:47:27.850272","INCLINATION":"53.0543","APOAPSIS":"548.195","OBJECT_TYPE":"PAYLOAD","GP_ID":"211503511","TIME_SYSTEM":"UTC","LAUNCH_DATE":"2021-05-04","COUNTRY_CODE":"US","RA_OF_ASC_NODE":"10.3648","REF_FRAME":"TEME","TLE_LINE2":"2 48354  53.0543  10.3648 0001425 101.3588 258.7561 15.06401796 73346","MEAN_MOTION_DDOT":"0.0000000000000"},{"MEAN_MOTION":"15.06407214","MEAN_ANOMALY":"279.3515","SEMIMAJOR_AXIS":"6925.326","NORAD_CAT_ID":"48355","INCLINATION":"53.0569","EPOCH":"2022-09-01T17:17:41.312256","APOAPSIS":"547.983","EPHEMERIS_TYPE":"0","CENTER_NAME":"EARTH","PERIOD":"95.592","GP_ID":"211503261","TIME_SYSTEM":"UTC","LAUNCH_DATE":"2021-05-04","OBJECT_TYPE":"PAYLOAD","TLE_LINE2":"2 48355  53.0569  10.0745 0001143  80.7603 279.3515 15.06407214 73355","MEAN_MOTION_DDOT":"0.0000000000000","COUNTRY_CODE":"US","RA_OF_ASC_NODE":"10.0745","REF_FRAME":"TEME","RCS_SIZE":"LARGE","ECCENTRICITY":"0.00011430","BSTAR":"0.00013169000000","CLASSIFICATION_TYPE":"U","ELEMENT_SET_NO":"999","MEAN_MOTION_DOT":"0.00001681","OBJECT_ID":"2021-038C","MEAN_ELEMENT_THEORY":"SGP4","FILE":"3554009","PERIAPSIS":"546.400","REV_AT_EPOCH":"7335","SITE":"AFETR","ARG_OF_PERICENTER":"80.7603","TLE_LINE1":"1 48355U 21038C   22244.72061704  .00001681  00000-0  13169-3 0  9999","DECAY_DATE":null,"OBJECT_NAME":"STARLINK-2635"},{"EPOCH":"2022-09-01T10:50:13.854336","INCLINATION":"53.0543","APOAPSIS":"548.179","EPHEMERIS_TYPE":"0","CENTER_NAME":"EARTH","PERIOD":"95.592","MEAN_MOTION":"15.06399097","MEAN_ANOMALY":"270.3290","SEMIMAJOR_AXIS":"6925.351","NORAD_CAT_ID":"48356","TLE_LINE2":"2 48356  53.0543  11.2690 0001390  89.7858 270.3290 15.06399097 73894","MEAN_MOTION_DDOT":"0.0000000000000","COUNTRY_CODE":"US","RA_OF_ASC_NODE":"11.2690","REF_FRAME":"TEME","GP_ID":"211440291","TIME_SYSTEM":"UTC","LAUNCH_DATE":"2021-05-04","OBJECT_TYPE":"PAYLOAD","ELEMENT_SET_NO":"999","RCS_SIZE":"LARGE","BSTAR":"0.00019881000000","ECCENTRICITY":"0.00013900","CLASSIFICATION_TYPE":"U","REV_AT_EPOCH":"7389","SITE":"AFETR","ARG_OF_PERICENTER":"89.7858","TLE_LINE1":"1 48356U 21038D   22244.45154924  .00002681  00000-0  19881-3 0  9995","DECAY_DATE":null,"OBJECT_NAME":"STARLINK-2637","MEAN_MOTION_DOT":"0.00002681","OBJECT_ID":"2021-038D","FILE":"3553348","MEAN_ELEMENT_THEORY":"SGP4","PERIAPSIS":"546.254"},{"OBJECT_ID":"2021-038E","MEAN_MOTION_DOT":"-0.00000445","FILE":"3554009","MEAN_ELEMENT_THEORY":"SGP4","PERIAPSIS":"546.357","REV_AT_EPOCH":"7337","SITE":"AFETR","TLE_LINE1":"1 48357U 21038E   22244.84869235 -.00000445  00000-0 -10984-4 0  9991","ARG_OF_PERICENTER":"87.6548","DECAY_DATE":null,"OBJECT_NAME":"STARLINK-2636","RCS_SIZE":"LARGE","ECCENTRICITY":"0.00012560","BSTAR":"-0.00001098400000","CLASSIFICATION_TYPE":"U","ELEMENT_SET_NO":"999","GP_ID":"211502760","TIME_SYSTEM":"UTC","LAUNCH_DATE":"2021-05-04","OBJECT_TYPE":"PAYLOAD","TLE_LINE2":"2 48357  53.0564   9.5312 0001256  87.6548 272.4585 15.06395800 73374","MEAN_MOTION_DDOT":"0.0000000000000","COUNTRY_CODE":"US","RA_OF_ASC_NODE":"9.5312","REF_FRAME":"TEME","MEAN_MOTION":"15.06395800","MEAN_ANOMALY":"272.4585","SEMIMAJOR_AXIS":"6925.361","NORAD_CAT_ID":"48357","INCLINATION":"53.0564","EPOCH":"2022-09-01T20:22:07.019040","APOAPSIS":"548.096","EPHEMERIS_TYPE":"0","CENTER_NAME":"EARTH","PERIOD":"95.592"},{"RA_OF_ASC_NODE":"11.6022","REF_FRAME":"TEME","COUNTRY_CODE":"US","TLE_LINE2":"2 48358  53.0584  11.6022 0001256  97.5847 262.5284 15.06390055 73295","MEAN_MOTION_DDOT":"0.0000000000000","OBJECT_TYPE":"PAYLOAD","GP_ID":"211467330","LAUNCH_DATE":"2021-05-04","TIME_SYSTEM":"UTC","CENTER_NAME":"EARTH","EPHEMERIS_TYPE":"0","PERIOD":"95.593","EPOCH":"2022-09-01T09:04:05.176416","INCLINATION":"53.0584","APOAPSIS":"548.114","SEMIMAJOR_AXIS":"6925.379","NORAD_CAT_ID":"48358","MEAN_ANOMALY":"262.5284","MEAN_MOTION":"15.06390055","OBJECT_NAME":"STARLINK-2624","ARG_OF_PERICENTER":"97.5847","TLE_LINE1":"1 48358U 21038F   22244.37783769 -.00001272  00000-0 -66547-4 0  9992","REV_AT_EPOCH":"7329","SITE":"AFETR","DECAY_DATE":null,"MEAN_MOTION_DOT":"-0.00001272","OBJECT_ID":"2021-038F","PERIAPSIS":"546.374","MEAN_ELEMENT_THEORY":"SGP4","FILE":"3553574","ELEMENT_SET_NO":"999","BSTAR":"-0.00006654700000","ECCENTRICITY":"0.00012560","CLASSIFICATION_TYPE":"U","RCS_SIZE":"LARGE"},{"APOAPSIS":"548.177","INCLINATION":"53.0564","EPOCH":"2022-09-01T20:07:33.039840","PERIOD":"95.592","EPHEMERIS_TYPE":"0","CENTER_NAME":"EARTH","MEAN_MOTION":"15.06397347","MEAN_ANOMALY":"277.1837","NORAD_CAT_ID":"48359","SEMIMAJOR_AXIS":"6925.357","MEAN_MOTION_DDOT":"0.0000000000000","TLE_LINE2":"2 48359  53.0564   9.5461 0001380  82.9309 277.1837 15.06397347 73361","COUNTRY_CODE":"US","RA_OF_ASC_NODE":"9.5461","REF_FRAME":"TEME","TIME_SYSTEM":"UTC","LAUNCH_DATE":"2021-05-04","GP_ID":"211503762","OBJECT_TYPE":"PAYLOAD","ELEMENT_SET_NO":"999","RCS_SIZE":"LARGE","CLASSIFICATION_TYPE":"U","ECCENTRICITY":"0.00013800","BSTAR":"0.00002674300000","DECAY_DATE":null,"SITE":"AFETR","REV_AT_EPOCH":"7336","TLE_LINE1":"1 48359U 21038G   22244.83857685  .00000117  00000-0  26743-4 0  9992","ARG_OF_PERICENTER":"82.9309","OBJECT_NAME":"STARLINK-2628","FILE":"3554009","MEAN_ELEMENT_THEORY":"SGP4","PERIAPSIS":"546.266","OBJECT_ID":"2021-038G","MEAN_MOTION_DOT":"0.00000117"},{"COUNTRY_CODE":"US","RA_OF_ASC_NODE":"11.3572","REF_FRAME":"TEME","TLE_LINE2":"2 48360  53.0559  11.3572 0001139  80.3085 279.8033 15.06390514 73890","MEAN_MOTION_DDOT":"0.0000000000000","OBJECT_TYPE":"PAYLOAD","GP_ID":"211477513","TIME_SYSTEM":"UTC","LAUNCH_DATE":"2021-05-04","EPHEMERIS_TYPE":"0","CENTER_NAME":"EARTH","PERIOD":"95.593","INCLINATION":"53.0559","EPOCH":"2022-09-01T10:29:00.382272","APOAPSIS":"548.031","SEMIMAJOR_AXIS":"6925.378","NORAD_CAT_ID":"48360","MEAN_MOTION":"15.06390514","MEAN_ANOMALY":"279.8033","OBJECT_NAME":"STARLINK-2622","SITE":"AFETR","REV_AT_EPOCH":"7389","ARG_OF_PERICENTER":"80.3085","TLE_LINE1":"1 48360U 21038H   22244.43680998 -.00000947  00000-0 -44701-4 0  9998","DECAY_DATE":null,"MEAN_MOTION_DOT":"-0.00000947","OBJECT_ID":"2021-038H","MEAN_ELEMENT_THEORY":"SGP4","FILE":"3553837","PERIAPSIS":"546.454","ELEMENT_SET_NO":"999","ECCENTRICITY":"0.00011390","BSTAR":"-0.00004470100000","CLASSIFICATION_TYPE":"U","RCS_SIZE":"LARGE"}];
